NORAD_CAT_ID,OBJECT_NAME,OBJECT_TYPE,EPOCH,MEAN_MOTION,ECCENTRICITY,INCLINATION,RA_OF_ASC_NODE,ARG_OF_PERICENTER,MEAN_ANOMALY,BSTAR,MEAN_MOTION_DOT,MEAN_MOTION_DDOT,TLE_LINE0,TLE_LINE1,TLE_LINE2,SEMIMAJOR_AXIS,PERIOD,APOGEE,PERIGEE,DECAYED
52365.0,STARLINK-3874,PAYLOAD,2022-06-28 06:00:00,15.73162055,0.0003551,53.215,142.469,4.435,122.9977,5.5797e-05,7.204e-05,0.0,0 STARLINK-3874,1 52365U 22045AL  22179.25001157  .00007204  00000-0  55797-4 0  9996,2 52365  53.2150 142.4690 0003551   4.4350 122.9977 15.73162055 11896,6728.003000000002,91.535,352.25699999999995,347.47900000000016,0.0
52365.0,STARLINK-3874,PAYLOAD,2022-06-28 14:00:01,15.73211644,0.0003438,53.2147,140.8184,5.6382,210.6674,-0.00076542,-0.00106788,0.0,0 STARLINK-3874,1 52365U 22045AL  22179.58334491 -.00106788  00000-0 -76542-3 0  9991,2 52365  53.2147 140.8184 0003438   5.6382 210.6674 15.73211644  1307,6727.861999999999,91.533,352.04,347.414,0.0
52365.0,STARLINK-3874,PAYLOAD,2022-06-28 22:00:00,15.73132092,0.0003297,53.215,139.1684,10.1064,295.0956,0.00026421,0.0003652,0.0,0 STARLINK-3874,1 52365U 22045AL  22179.91667824  .00036520  00000-0  26421-3 0  9992,2 52365  53.2150 139.1684 0003297  10.1064 295.0956 15.73132092  1307,6728.089,91.537,352.172,347.736,0.0
52365.0,STARLINK-3874,PAYLOAD,2022-06-29 14:00:01,15.73186868,0.0003441,53.2153,135.8702,10.3453,112.5979,1.5864e-05,1.603e-05,0.0,0 STARLINK-3874,1 52365U 22045AL  22180.58334491  .00001603  00000-0  15864-4 0  9992,2 52365  53.2153 135.8702 0003441  10.3453 112.5979 15.73186868  1307,6727.933000000001,91.534,352.11300000000006,347.483,0.0
52365.0,STARLINK-3874,PAYLOAD,2022-06-29 22:00:00,15.73200807,0.0003353,53.2158,134.2202,13.4447,198.4009,0.00021385,0.00029503,0.0,0 STARLINK-3874,1 52365U 22045AL  22180.91667824  .00029503  00000-0  21385-3 0  9991,2 52365  53.2158 134.2202 0003353  13.4447 198.4009 15.73200807 12151,6727.893,91.533,352.014,347.50199999999984,0.0
52365.0,STARLINK-3874,PAYLOAD,2022-06-30 14:00:01,15.73256659,0.0003461,53.2157,130.9217,12.8306,16.919,-0.00015768,-0.00022755,0.0,0 STARLINK-3874,1 52365U 22045AL  22181.58334491 -.00022755  00000-0 -15768-3 0  9998,2 52365  53.2157 130.9217 0003461  12.8306  16.9190 15.73256659  1302,6727.734,91.53,351.927,347.27,0.0
52365.0,STARLINK-3874,PAYLOAD,2022-06-30 22:00:00,15.73238665,0.000334,53.2158,129.27200000000002,12.9018,105.8353,-0.00013916,-0.00020146,0.0,0 STARLINK-3874,1 52365U 22045AL  22181.91667824 -.00020146  00000-0 -13916-3 0  9999,2 52365  53.2158 129.2720 0003340  12.9018 105.8353 15.73238665  1306,6727.785,91.531,351.897,347.403,0.0
52365.0,STARLINK-3874,PAYLOAD,2022-07-01 14:00:01,15.7327027,0.0003378,53.2159,125.9732,10.4794,286.1699,-0.00061644,-0.00086543,0.0,0 STARLINK-3874,1 52365U 22045AL  22182.58334491 -.00086543  00000-0 -61644-3 0  9998,2 52365  53.2159 125.9732 0003378  10.4794 286.1699 15.73270270  1302,6727.695,91.529,351.832,347.287,0.0
52365.0,STARLINK-3874,PAYLOAD,2022-07-01 22:00:00,15.73207804,0.0003348,53.2163,124.3235,10.7169,14.9079,4.8566e-05,6.201e-05,0.0,0 STARLINK-3874,1 52365U 22045AL  22182.91667824  .00006201  00000-0  48566-4 0  9994,2 52365  53.2163 124.3235 0003348  10.7169  14.9079 15.73207804  1306,6727.873000000001,91.533,351.99,347.485,0.0
52365.0,STARLINK-3874,PAYLOAD,2022-07-02 14:00:01,15.73202638,0.0003408,53.2162,121.0246,7.395,196.1443,-4.9936e-05,-7.628e-05,0.0,0 STARLINK-3874,1 52365U 22045AL  22183.58334491 -.00007628  00000-0 -49936-4 0  9997,2 52365  53.2162 121.0246 0003408   7.3950 196.1443 15.73202638  1306,6727.888000000001,91.533,352.046,347.46,0.0
52365.0,STARLINK-3874,PAYLOAD,2022-07-02 22:00:00,15.73235999,0.0003304,53.2161,119.3753,7.8237,284.6556,0.00013942,0.00019023,0.0,0 STARLINK-3874,1 52365U 22045AL  22183.91667824  .00019023  00000-0  13942-3 0  9990,2 52365  53.2161 119.3753 0003304   7.8237 284.6556 15.73235999  1300,6727.793000000002,91.531,351.88,347.435,0.0
52365.0,STARLINK-3874,PAYLOAD,2022-07-03 00:00:00,15.73244543,0.0003388,53.216,118.9636,7.7692,36.9516,5.517e-05,7.142e-05,0.0,0 STARLINK-3874,1 52365U 22045AL  22184.00001157  .00007142  00000-0  55170-4 0  9991,2 52365  53.2160 118.9636 0003388   7.7692  36.9516 15.73244543 12648,6727.768,91.531,351.913,347.35400000000016,0.0
52365.0,STARLINK-3874,PAYLOAD,2022-07-03 14:00:01,15.73252659,0.0003362,53.216,116.0759,8.2051,102.2778,-0.00089513,-0.00124733,0.0,0 STARLINK-3874,1 52365U 22045AL  22184.58334491 -.00124733  00000-0 -89513-3 0  9999,2 52365  53.2160 116.0759 0003362   8.2051 102.2778 15.73252659  1305,6727.745,91.53,351.872,347.348,0.0
52365.0,STARLINK-3874,PAYLOAD,2022-07-03 22:00:00,15.73165609,0.0003403,53.2163,114.4266,13.5044,185.9054,-0.00084657,-0.0011766,0.0,0 STARLINK-3874,1 52365U 22045AL  22184.91667824 -.00117660  00000-0 -84657-3 0  9990,2 52365  53.2163 114.4266 0003403  13.5044 185.9054 15.73165609 12787,6727.993,91.535,352.148,347.569,0.0
52365.0,STARLINK-3874,PAYLOAD,2022-07-04 14:00:01,15.73068318,0.0003375,53.2159,111.1277,10.6759,6.3557,0.0010796,0.00152843,0.0,0 STARLINK-3874,1 52365U 22045AL  22185.58334491  .00152843  00000-0  10796-2 0  9997,2 52365  53.2159 111.1277 0003375  10.6759   6.3557 15.73068318 12892,6728.271,91.541,352.406,347.865,0.0
52365.0,STARLINK-3874,PAYLOAD,2022-07-04 22:00:00,15.73209491,0.0003372,53.2158,109.479,9.9327,95.9439,4.7285e-05,6.022e-05,0.0,0 STARLINK-3874,1 52365U 22045AL  22185.91667824  .00006022  00000-0  47285-4 0  9995,2 52365  53.2158 109.4790 0003372   9.9327  95.9439 15.73209491  1306,6727.868,91.533,352.00199999999984,347.464,0.0
52365.0,STARLINK-3874,PAYLOAD,2022-07-05 08:00:01,15.73231719,0.0003557,53.2152,107.418,8.4514,298.6115,0.00024966,0.00034617,0.0,0 STARLINK-3874,1 52365U 22045AL  22186.33334491  .00034617  00000-0  24966-3 0  9994,2 52365  53.2152 107.4180 0003557   8.4514 298.6115 15.73231719 13009,6727.805,91.531,352.06300000000016,347.277,0.0
52365.0,STARLINK-3874,PAYLOAD,2022-07-05 14:00:01,15.73264366,0.0003293,53.2156,106.1791,8.3353,275.4686,-0.00022146,-0.00031683,0.0,0 STARLINK-3874,1 52365U 22045AL  22186.58334491 -.00031683  00000-0 -22146-3 0  9991,2 52365  53.2156 106.1791 0003293   8.3353 275.4686 15.73264366  1304,6727.712,91.529,351.792,347.361,0.0
52365.0,STARLINK-3874,PAYLOAD,2022-07-05 22:00:00,15.73252007,0.0003357,53.2162,104.5277,7.8731,4.9233,-0.00016957,-0.00024413,0.0,0 STARLINK-3874,1 52365U 22045AL  22186.91667824 -.00024413  00000-0 -16957-3 0  9993,2 52365  53.2162 104.5277 0003357   7.8731   4.9233 15.73252007 13100,6727.746999999999,91.53,351.87,347.353,0.0
52365.0,STARLINK-3874,PAYLOAD,2022-07-06 06:00:00,15.73258576,0.0003371,53.2165,102.8757,5.4573,96.3082,-0.0038281,-0.00508253,0.0,0 STARLINK-3874,1 52365U 22045AL  22187.25001157 -.00508253  00000-0 -38281-2 0  9994,2 52365  53.2165 102.8757 0003371   5.4573  96.3082 15.73258576 13150,6727.728,91.53,351.861,347.325,0.0
52365.0,STARLINK-3874,PAYLOAD,2022-07-06 14:00:01,15.73024139,0.000326,53.2173,101.219,5.9081,184.6313,-0.0084459,-0.01059077,0.0,0 STARLINK-3874,1 52365U 22045AL  22187.58334491 -.01059077  00000-0 -84459-2 0  9994,2 52365  53.2173 101.2190 0003260   5.9081 184.6313 15.73024139 13209,6728.397,91.543,352.455,348.0680000000001,0.0
52365.0,STARLINK-3874,PAYLOAD,2022-07-06 22:00:00,15.72261182,0.0003236,53.2175,99.5677,6.8967,271.8933,-0.0086953,-0.01055524,0.0,0 STARLINK-3874,1 52365U 22045AL  22187.91667824 -.01055524  00000-0 -86953-2 0  9994,2 52365  53.2175  99.5677 0003236   6.8967 271.8933 15.72261182  1301,6730.573,91.588,354.616,350.26,0.0
52365.0,STARLINK-3874,PAYLOAD,2022-07-07 04:26:55,15.72027197,0.0002782,53.2154,98.2552,313.9145,46.1644,-0.0035168,-0.00446144,0.0,0 STARLINK-3874,1 52365U 22045AL  22188.18536399 -.00446144  00000-0 -35168-2 0  9999,2 52365  53.2154  98.2552 0002782 313.9145  46.1644 15.72027197 13302,6731.241,91.601,354.97900000000016,351.233,0.0
52365.0,STARLINK-3874,PAYLOAD,2022-07-07 14:00:01,15.70739681,0.0003168,53.2172,96.268,3.6461,88.9056,-0.0092346,-0.01051132,0.0,0 STARLINK-3874,1 52365U 22045AL  22188.58334491 -.01051132  00000-0 -92346-2 0  9993,2 52365  53.2172  96.2680 0003168   3.6461  88.9056 15.70739681  1309,6734.919,91.677,358.917,354.65,0.0
52365.0,STARLINK-3874,PAYLOAD,2022-07-07 21:14:40,15.70801686,0.0007471,53.2157,94.8039,235.829,124.2022,-0.0012234,-0.001532,0.0,0 STARLINK-3874,1 52365U 22045AL  22188.88519274 -.00153200  00000-0 -12234-2 0  9996,2 52365  53.2157  94.8039 0007471 235.8290 124.2022 15.70801686 13411,6734.7419999999975,91.673,361.638,351.575,0.0
52365.0,STARLINK-3874,PAYLOAD,2022-07-08 04:53:10,15.69769091,0.0004244,53.2156,93.2365,294.4299,65.6276,-0.0031712,-0.00369396,0.0,0 STARLINK-3874,1 52365U 22045AL  22189.20359774 -.00369396  00000-0 -31712-2 0  9997,2 52365  53.2156  93.2365 0004244 294.4299  65.6276 15.69769091 13465,6737.695,91.733,362.419,356.7,0.0
52365.0,STARLINK-3874,PAYLOAD,2022-07-08 14:00:01,15.68459909,0.0001189,53.2173,91.3337,37.2218,309.1253,-0.010134,-0.01047998,0.0,0 STARLINK-3874,1 52365U 22045AL  22189.58334491 -.01047998  00000-0 -10134-1 0  9993,2 52365  53.2173  91.3337 0001189  37.2218 309.1253 15.68459909 13511,6741.443,91.81,364.11,362.507,0.0
52365.0,STARLINK-3874,PAYLOAD,2022-07-08 22:00:01,15.67702791,0.0001394,53.2175,89.6941,43.1057,26.0776,-0.010488,-0.01050981,0.0,0 STARLINK-3874,1 52365U 22045AL  22189.91668981 -.01050981  00000-0 -10488-1 0  9992,2 52365  53.2175  89.6941 0001394  43.1057  26.0776 15.67702791  1307,6743.614000000001,91.854,366.419,364.539,0.0
52365.0,STARLINK-3874,PAYLOAD,2022-07-09 06:00:00,15.66943941,0.0001229,53.217,88.0555,66.1585,84.8193,-0.010825,-0.01051402,0.0,0 STARLINK-3874,1 52365U 22045AL  22190.25001157 -.01051402  00000-0 -10825-1 0  9991,2 52365  53.2170  88.0555 0001229  66.1585  84.8193 15.66943941 13620,6745.791,91.899,368.485,366.827,0.0
